[{"OBJECT_NAME":"TUSUR GO (RS78S)","OBJECT_ID":"2024-199AZ","EPOCH":"2026-03-09T22:48:41.341536","MEAN_MOTION":15.7089308,"ECCENTRICITY":0.00036127,"INCLINATION":97.3018,"RA_OF_ASC_NODE":306.7757,"ARG_OF_PERICENTER":269.724,"MEAN_ANOMALY":90.3609,"EPHEMERIS_TYPE":0,"CLASSIFICATION_TYPE":"U","NORAD_CAT_ID":61782,"ELEMENT_SET_NO":999,"REV_AT_EPOCH":11926,"BSTAR":0.0013446465,"MEAN_MOTION_DOT":0.00170473,"MEAN_MOTION_DDOT":0},{"OBJECT_NAME":"STARLINK-11535 [DTC]","OBJECT_ID":"2025-008J","EPOCH":"2026-03-09T12:44:49.748640","MEAN_MOTION":15.70871612,"ECCENTRICITY":0.00019758,"INCLINATION":42.9992,"RA_OF_ASC_NODE":126.7301,"ARG_OF_PERICENTER":251.4188,"MEAN_ANOMALY":108.6466,"EPHEMERIS_TYPE":0,"CLASSIFICATION_TYPE":"U","NORAD_CAT_ID":62595,"ELEMENT_SET_NO":999,"REV_AT_EPOCH":6711,"BSTAR":0.00088026329,"MEAN_MOTION_DOT":0.0011422,"MEAN_MOTION_DDOT":0}]
